[
    {
        "Altitude(m)": 610399.5750707559,
        "Argument of Periapsis(deg)": 0.0,
        "Eccentricity": 0.0,
        "Inclination(deg)": 60.0,
        "Latitude(deg)": 52.11146248957356,
        "Longitude(deg)": 77.58424811667346,
        "Mean Anomaly(deg)": 65.45449999999998,
        "RAAN(deg)": 130.0,
        "Satellite Name": "Test1 576",
        "Satellite Number": 576,
        "Semi-Major Axis(m)": 6980739.136638005,
        "Time(s)": 0
    },
    {
        "Altitude(m)": 610481.7262252396,
        "Argument of Periapsis(deg)": 0.00010418945913296404,
        "Eccentricity": 0.0,
        "Inclination(deg)": 60.0,
        "Latitude(deg)": 52.47106533768815,
        "Longitude(deg)": 78.36638584481754,
        "Mean Anomaly(deg)": 66.07460614546183,
        "RAAN(deg)": 129.99957995086024,
        "Satellite Name": "Test1 576",
        "Satellite Number": 576,
        "Semi-Major Axis(m)": 6980739.136638005,
        "Time(s)": 10
    },
    {
        "Altitude(m)": 610562.4161836938,
        "Argument of Periapsis(deg)": 0.0002083789182659281,
        "Eccentricity": 0.0,
        "Inclination(deg)": 60.0,
        "Latitude(deg)": 52.82482076844128,
        "Longitude(deg)": 79.16193668996623,
        "Mean Anomaly(deg)": 66.69471229092366,
        "RAAN(deg)": 129.9991599017205,
        "Satellite Name": "Test1 576",
        "Satellite Number": 576,
        "Semi-Major Axis(m)": 6980739.136638005,
        "Time(s)": 20
    },
    {
        "Altitude(m)": 610641.5974801733,
        "Argument of Periapsis(deg)": 0.00031256837739889213,
        "Eccentricity": 0.0,
        "Inclination(deg)": 60.0,
        "Latitude(deg)": 53.17255925356521,
        "Longitude(deg)": 79.97106516586003,
        "Mean Anomaly(deg)": 67.3148184363855,
        "RAAN(deg)": 129.99873985258077,
        "Satellite Name": "Test1 576",
        "Satellite Number": 576,
        "Semi-Major Axis(m)": 6980739.136638005,
        "Time(s)": 30
    },
    {
        "Altitude(m)": 610719.2236051933,
        "Argument of Periapsis(deg)": 0.0004167578365318562,
        "Eccentricity": 0.0,
        "Inclination(deg)": 60.0,
        "Latitude(deg)": 53.5141077888226,
        "Longitude(deg)": 80.79392417362095,
        "Mean Anomaly(deg)": 67.93492458184731,
        "RAAN(deg)": 129.99831980344103,
        "Satellite Name": "Test1 576",
        "Satellite Number": 576,
        "Semi-Major Axis(m)": 6980739.136638005,
        "Time(s)": 40
    },
    {
        "Altitude(m)": 610795.2490280492,
        "Argument of Periapsis(deg)": 0.0005209472956648203,
        "Eccentricity": 0.0,
        "Inclination(deg)": 60.0,
        "Latitude(deg)": 53.84929001597111,
        "Longitude(deg)": 81.63065258753437,
        "Mean Anomaly(deg)": 68.55503072730914,
        "RAAN(deg)": 129.99789975430127,
        "Satellite Name": "Test1 576",
        "Satellite Number": 576,
        "Semi-Major Axis(m)": 6980739.136638005,
        "Time(s)": 50
    },
    {
        "Altitude(m)": 610869.6292186592,
        "Argument of Periapsis(deg)": 0.0006251367547977843,
        "Eccentricity": 0.0,
        "Inclination(deg)": 60.0,
        "Latitude(deg)": 54.17792636905433,
        "Longitude(deg)": 82.48137428806224,
        "Mean Anomaly(deg)": 69.17513687277096,
        "RAAN(deg)": 129.99747970516154,
        "Satellite Name": "Test1 576",
        "Satellite Number": 576,
        "Semi-Major Axis(m)": 6980739.136638005,
        "Time(s)": 60
    },
    {
        "Altitude(m)": 610942.3206688851,
        "Argument of Periapsis(deg)": 0.0007293262139307483,
        "Eccentricity": 0.0,
        "Inclination(deg)": 60.0,
        "Latitude(deg)": 54.499834246682,
        "Longitude(deg)": 83.34619713351472,
        "Mean Anomaly(deg)": 69.79524301823281,
        "RAAN(deg)": 129.9970596560218,
        "Satellite Name": "Test1 576",
        "Satellite Number": 576,
        "Semi-Major Axis(m)": 6980739.136638005,
        "Time(s)": 70
    },
    {
        "Altitude(m)": 611013.280913355,
        "Argument of Periapsis(deg)": 0.0008335156730637124,
        "Eccentricity": 0.0,
        "Inclination(deg)": 60.0,
        "Latitude(deg)": 54.814828211923505,
        "Longitude(deg)": 84.2252103631203,
        "Mean Anomaly(deg)": 70.41534916369464,
        "RAAN(deg)": 129.99663960688207,
        "Satellite Name": "Test1 576",
        "Satellite Number": 576,
        "Semi-Major Axis(m)": 6980739.136638005,
        "Time(s)": 80
    },
    {
        "Altitude(m)": 611082.4685497575,
        "Argument of Periapsis(deg)": 0.0009377051321966765,
        "Eccentricity": 0.0,
        "Inclination(deg)": 60.0,
        "Latitude(deg)": 55.122720221375225,
        "Longitude(deg)": 85.11848346429367,
        "Mean Anomaly(deg)": 71.03545530915646,
        "RAAN(deg)": 129.9962195577423,
        "Satellite Name": "Test1 576",
        "Satellite Number": 576,
        "Semi-Major Axis(m)": 6980739.136638005,
        "Time(s)": 90
    },
    {
        "Altitude(m)": 611149.843258638,
        "Argument of Periapsis(deg)": 0.0010418945913296407,
        "Eccentricity": 0.0,
        "Inclination(deg)": 60.0,
        "Latitude(deg)": 55.42331988486103,
        "Longitude(deg)": 86.02606499981428,
        "Mean Anomaly(deg)": 71.65556145461828,
        "RAAN(deg)": 129.9957995086026,
        "Satellite Name": "Test1 576",
        "Satellite Number": 576,
        "Semi-Major Axis(m)": 6980739.136638005,
        "Time(s)": 100
    },
    {
        "Altitude(m)": 611215.3658226327,
        "Argument of Periapsis(deg)": 0.0011460840504626045,
        "Eccentricity": 0.0,
        "Inclination(deg)": 60.0,
        "Latitude(deg)": 55.716434757094106,
        "Longitude(deg)": 86.94797989226323,
        "Mean Anomaly(deg)": 72.27566760008014,
        "RAAN(deg)": 129.99537945946284,
        "Satellite Name": "Test1 576",
        "Satellite Number": 576,
        "Semi-Major Axis(m)": 6980739.136638005,
        "Time(s)": 110
    },
    {
        "Altitude(m)": 611278.9981451674,
        "Argument of Periapsis(deg)": 0.0012502735095955685,
        "Eccentricity": 0.0,
        "Inclination(deg)": 60.0,
        "Latitude(deg)": 56.00187066245964,
        "Longitude(deg)": 87.88422820342181,
        "Mean Anomaly(deg)": 72.89577374554196,
        "RAAN(deg)": 129.9949594103231,
        "Satellite Name": "Test1 576",
        "Satellite Number": 576,
        "Semi-Major Axis(m)": 6980739.136638005,
        "Time(s)": 120
    },
    {
        "Altitude(m)": 611340.7032686108,
        "Argument of Periapsis(deg)": 0.0013544629687285324,
        "Eccentricity": 0.0,
        "Inclination(deg)": 60.0,
        "Latitude(deg)": 56.27943205386574,
        "Longitude(deg)": 88.83478390947545,
        "Mean Anomaly(deg)": 73.51587989100379,
        "RAAN(deg)": 129.99453936118334,
        "Satellite Name": "Test1 576",
        "Satellite Number": 576,
        "Semi-Major Axis(m)": 6980739.136638005,
        "Time(s)": 130
    },
    {
        "Altitude(m)": 611400.4453918966,
        "Argument of Periapsis(deg)": 0.0014586524278614966,
        "Eccentricity": 0.0,
        "Inclination(deg)": 60.0,
        "Latitude(deg)": 56.548922406355274,
        "Longitude(deg)": 89.79959217467014,
        "Mean Anomaly(deg)": 74.13598603646562,
        "RAAN(deg)": 129.99411931204364,
        "Satellite Name": "Test1 576",
        "Satellite Number": 576,
        "Semi-Major Axis(m)": 6980739.136638005,
        "Time(s)": 140
    },
    {
        "Altitude(m)": 611458.1898875172,
        "Argument of Periapsis(deg)": 0.0015628418869944607,
        "Eccentricity": 0.0,
        "Inclination(deg)": 60.0,
        "Latitude(deg)": 56.81014464587594,
        "Longitude(deg)": 90.77856816649258,
        "Mean Anomaly(deg)": 74.75609218192744,
        "RAAN(deg)": 129.99369926290387,
        "Satellite Name": "Test1 576",
        "Satellite Number": 576,
        "Semi-Major Axis(m)": 6980739.136638005,
        "Time(s)": 150
    },
    {
        "Altitude(m)": 611513.9033180097,
        "Argument of Periapsis(deg)": 0.0016670313461274247,
        "Eccentricity": 0.0,
        "Inclination(deg)": 60.0,
        "Latitude(deg)": 57.06290161325818,
        "Longitude(deg)": 91.77159591855289,
        "Mean Anomaly(deg)": 75.37619832738928,
        "RAAN(deg)": 129.99327921376414,
        "Satellite Name": "Test1 576",
        "Satellite Number": 576,
        "Semi-Major Axis(m)": 6980739.136638005,
        "Time(s)": 160
    },
    {
        "Altitude(m)": 611567.5534518458,
        "Argument of Periapsis(deg)": 0.0017712208052603888,
        "Eccentricity": 0.0,
        "Inclination(deg)": 60.0,
        "Latitude(deg)": 57.306996563062235,
        "Longitude(deg)": 92.77852574898715,
        "Mean Anomaly(deg)": 75.99630447285112,
        "RAAN(deg)": 129.99285916462438,
        "Satellite Name": "Test1 576",
        "Satellite Number": 576,
        "Semi-Major Axis(m)": 6980739.136638005,
        "Time(s)": 170
    },
    {
        "Altitude(m)": 611619.1092787267,
        "Argument of Periapsis(deg)": 0.001875410264393353,
        "Eccentricity": 0.0,
        "Inclination(deg)": 60.0,
        "Latitude(deg)": 57.54223369652158,
        "Longitude(deg)": 93.79917328231363,
        "Mean Anomaly(deg)": 76.61641061831295,
        "RAAN(deg)": 129.99243911548467,
        "Satellite Name": "Test1 576",
        "Satellite Number": 576,
        "Semi-Major Axis(m)": 6980739.136638005,
        "Time(s)": 180
    },
    {
        "Altitude(m)": 611668.541024284,
        "Argument of Periapsis(deg)": 0.0019795997235263173,
        "Eccentricity": 0.0,
        "Inclination(deg)": 60.0,
        "Latitude(deg)": 57.7684187273325,
        "Longitude(deg)": 94.8333185853124,
        "Mean Anomaly(deg)": 77.23651676377476,
        "RAAN(deg)": 129.99201906634488,
        "Satellite Name": "Test1 576",
        "Satellite Number": 576,
        "Semi-Major Axis(m)": 6980739.136638005,
        "Time(s)": 190
    }
]